NORAD_CAT_ID,OBJECT_NAME,OBJECT_TYPE,EPOCH,MEAN_MOTION,ECCENTRICITY,INCLINATION,RA_OF_ASC_NODE,ARG_OF_PERICENTER,MEAN_ANOMALY,BSTAR,MEAN_MOTION_DOT,MEAN_MOTION_DDOT,TLE_LINE0,TLE_LINE1,TLE_LINE2,SEMIMAJOR_AXIS,PERIOD,APOGEE,PERIGEE,DECAYED
53162.0,STARLINK-4114,PAYLOAD,2023-10-13 21:35:52,15.08853664,0.0001271,53.2161,144.68,107.6628,252.4503,0.00021899,3.2e-05,0.0,0 STARLINK-4114,1 53162U 22083AG  23286.89991056  .00003200  00000-0  21899-3 0  9997,2 53162  53.2161 144.6800 0001271 107.6628 252.4503 15.08853664 68844,6917.839,95.437,540.583,538.824,0.0
53162.0,STARLINK-4114,PAYLOAD,2023-10-14 13:29:44,15.08841824,0.0001259,53.2151,141.7096,73.9504,286.1627,0.0001047,1.379e-05,0.0,0 STARLINK-4114,1 53162U 22083AG  23287.56231584  .00001379  00000-0  10470-3 0  9993,2 53162  53.2151 141.7096 0001259  73.9504 286.1627 15.08841824 68949,6917.875,95.437,540.611,538.869,0.0
53162.0,STARLINK-4114,PAYLOAD,2023-10-14 21:26:40,15.08834873,0.0001133,53.2148,140.2209,87.3584,272.7538,-2.0067e-05,-6.07e-06,0.0,0 STARLINK-4114,1 53162U 22083AG  23287.89351956 -.00000607  00000-0 -20067-4 0  9994,2 53162  53.2148 140.2209 0001133  87.3584 272.7538 15.08834873 69627,6917.896,95.438,540.545,538.977,0.0
53162.0,STARLINK-4114,PAYLOAD,2023-10-15 06:58:58,15.08835275,0.0001225,53.2156,138.437,83.5832,276.53,-1.2113e-05,-4.81e-06,0.0,0 STARLINK-4114,1 53162U 22083AG  23288.29095959 -.00000481  00000-0 -12113-4 0  9990,2 53162  53.2156 138.4370 0001225  83.5832 276.5300 15.08835275 69053,6917.895,95.438,540.607,538.912,0.0
53162.0,STARLINK-4114,PAYLOAD,2023-10-15 21:17:27,15.08844214,0.0001213,53.2158,135.7606,87.8832,272.2299,4.0785e-05,3.61e-06,0.0,0 STARLINK-4114,1 53162U 22083AG  23288.88711834  .00000361  00000-0  40785-4 0  9993,2 53162  53.2158 135.7606 0001213  87.8832 272.2299 15.08844214 69144,6917.868,95.437,540.572,538.893,0.0
53162.0,STARLINK-4114,PAYLOAD,2023-10-15 22:52:50,15.08847301,0.0001239,53.2158,135.4635,91.1699,268.9435,7.7589e-05,9.47e-06,0.0,0 STARLINK-4114,1 53162U 22083AG  23288.95335663  .00000947  00000-0  77589-4 0  9995,2 53162  53.2158 135.4635 0001239  91.1699 268.9435 15.08847301 69784,6917.858,95.437,540.58,538.866,0.0
53162.0,STARLINK-4114,PAYLOAD,2023-10-16 06:49:46,15.08837535,0.000136,53.2159,133.9767,88.218,271.8968,0.00029364,4.388e-05,0.0,0 STARLINK-4114,1 53162U 22083AG  23289.28456312  .00004388  00000-0  29364-3 0  9997,2 53162  53.2159 133.9767 0001360  88.2180 271.8968 15.08837535 69839,6917.888,95.438,540.694,538.812,0.0
53162.0,STARLINK-4114,PAYLOAD,2023-10-16 16:22:05,15.0883672,0.0001377,53.215,132.1924,83.9392,276.1757,0.00014743,2.059e-05,0.0,0 STARLINK-4114,1 53162U 22083AG  23289.68200362  .00002059  00000-0  14743-3 0  9991,2 53162  53.2150 132.1924 0001377  83.9392 276.1757 15.08836720 69267,6917.89,95.438,540.708,538.803,0.0
53162.0,STARLINK-4114,PAYLOAD,2023-10-17 13:02:05,15.08841849,0.0001275,53.2134,128.3281,87.1824,272.9314,0.00015383,2.161e-05,0.0,0 STARLINK-4114,1 53162U 22083AG  23290.54312145  .00002161  00000-0  15383-3 0  9996,2 53162  53.2134 128.3281 0001275  87.1824 272.9314 15.08841849 69390,6917.875,95.437,540.622,538.858,0.0
53162.0,STARLINK-4114,PAYLOAD,2023-10-17 19:23:38,15.08845675,0.0001373,53.2163,127.1363,91.9461,268.1688,0.00013721,1.897e-05,0.0,0 STARLINK-4114,1 53162U 22083AG  23290.80808083  .00001897  00000-0  13721-3 0  9995,2 53162  53.2163 127.1363 0001373  91.9461 268.1688 15.08845675 70067,6917.863,95.437,540.678,538.778,0.0
53162.0,STARLINK-4114,PAYLOAD,2023-10-18 12:52:52,15.08842024,0.0001207,53.2158,123.867,87.1721,272.9409,0.00011328,1.516e-05,0.0,0 STARLINK-4114,1 53162U 22083AG  23291.53672306  .00001516  00000-0  11328-3 0  9992,2 53162  53.2158 123.8670 0001207  87.1721 272.9409 15.08842024 70178,6917.874,95.437,540.574,538.904,0.0
53162.0,STARLINK-4114,PAYLOAD,2023-10-18 16:03:39,15.08841829,0.0001197,53.2158,123.272,87.3075,272.8054,0.00010681,1.413e-05,0.0,0 STARLINK-4114,1 53162U 22083AG  23291.66920325  .00001413  00000-0  10681-3 0  9990,2 53162  53.2158 123.2720 0001197  87.3075 272.8054 15.08841829 69568,6917.875,95.437,540.568,538.912,0.0
53162.0,STARLINK-4114,PAYLOAD,2023-10-19 12:43:39,15.08848301,0.0001298,53.2157,119.4059,88.6416,271.4725,0.00016733,2.377e-05,0.0,0 STARLINK-4114,1 53162U 22083AG  23292.53031689  .00002377  00000-0  16733-3 0  9997,2 53162  53.2157 119.4059 0001298  88.6416 271.4725 15.08848301 69690,6917.855,95.437,540.618,538.822,0.0
53162.0,STARLINK-4114,PAYLOAD,2023-10-19 19:05:11,15.08851063,0.0001325,53.2148,118.2164,86.9012,273.2131,0.00024575,3.627e-05,0.0,0 STARLINK-4114,1 53162U 22083AG  23292.79527673  .00003627  00000-0  24575-3 0  9990,2 53162  53.2148 118.2164 0001325  86.9012 273.2131 15.08851063 70364,6917.847,95.437,540.628,538.795,0.0
53162.0,STARLINK-4114,PAYLOAD,2023-10-19 22:15:58,15.08853476,0.0001459,53.2145,117.6213,86.8392,273.2767,0.00027805,4.142e-05,0.0,0 STARLINK-4114,1 53162U 22083AG  23292.92775506  .00004142  00000-0  27805-3 0  9997,2 53162  53.2145 117.6213 0001459  86.8392 273.2767 15.08853476 69753,6917.839,95.437,540.714,538.695,0.0
53162.0,STARLINK-4114,PAYLOAD,2023-10-20 15:45:14,15.08825305,0.0002178,53.2146,114.3472,94.6076,265.5165,-0.00011225,-2.074e-05,0.0,0 STARLINK-4114,1 53162U 22083AG  23293.65641469 -.00002074  00000-0 -11225-3 0  9991,2 53162  53.2146 114.3472 0002178  94.6076 265.5165 15.08825305 70499,6917.925,95.438,541.297,538.284,0.0
53162.0,STARLINK-4114,PAYLOAD,2023-10-20 22:06:46,15.08818675,3.93e-05,53.2164,113.1636,150.3517,209.7498,-0.00025651,-4.365e-05,0.0,0 STARLINK-4114,1 53162U 22083AG  23293.92137454 -.00004365  00000-0 -25651-3 0  9998,2 53162  53.2164 113.1636 0000393 150.3517 209.7498 15.08818675 69900,6917.946,95.439,540.082,539.539,0.0
53162.0,STARLINK-4114,PAYLOAD,2023-10-21 12:25:15,15.08817513,1.82e-05,53.2198,110.4877,2.5245,357.5748,-0.00026125,-4.44e-05,0.0,0 STARLINK-4114,1 53162U 22083AG  23294.51754299 -.00004440  00000-0 -26125-3 0  9997,2 53162  53.2198 110.4877 0000182   2.5245 357.5748 15.08817513 69995,6917.949,95.439,539.94,539.688,0.0
53162.0,STARLINK-4114,PAYLOAD,2023-10-21 18:46:47,15.08834997,0.000145,53.2148,109.2971,96.9746,263.1411,6.716e-05,7.81e-06,0.0,0 STARLINK-4114,1 53162U 22083AG  23294.78249704  .00000781  00000-0  67160-4 0  9993,2 53162  53.2148 109.2971 0001450  96.9746 263.1411 15.08834997 70663,6917.896,95.438,540.764,538.758,0.0
53162.0,STARLINK-4114,PAYLOAD,2023-10-21 21:57:33,15.08837093,0.0001421,53.2154,108.7007,95.6887,264.4267,0.00010615,1.402e-05,0.0,0 STARLINK-4114,1 53162U 22083AG  23294.91497662  .00001402  00000-0  10615-3 0  9999,2 53162  53.2154 108.7007 0001421  95.6887 264.4267 15.08837093 70050,6917.889,95.438,540.737,538.771,0.0
53162.0,STARLINK-4114,PAYLOAD,2023-10-22 04:19:06,15.08837214,0.0001815,53.2154,107.5117,96.2056,263.9143,0.00037568,5.696e-05,0.0,0 STARLINK-4114,1 53162U 22083AG  23295.17994155  .00005696  00000-0  37568-3 0  9992,2 53162  53.2154 107.5117 0001815  96.2056 263.9143 15.08837214 70097,6917.889,95.438,541.01,538.498,0.0
53162.0,STARLINK-4114,PAYLOAD,2023-10-22 17:02:11,15.08853175,0.0001312,53.2162,105.1325,99.1886,260.9255,0.00071696,0.00011145,0.0,0 STARLINK-4114,1 53162U 22083AG  23295.70985796  .00011145  00000-0  71696-3 0  9998,2 53162  53.2162 105.1325 0001312  99.1886 260.9255 15.08853175 70800,6917.84,95.437,540.613,538.797,0.0
53162.0,STARLINK-4114,PAYLOAD,2023-10-23 18:28:20,15.08849258,0.0001453,53.2166,100.3738,91.7002,268.4157,-0.00014041,-2.522e-05,0.0,0 STARLINK-4114,1 53162U 22083AG  23296.76968616 -.00002522  00000-0 -14041-3 0  9999,2 53162  53.2166 100.3738 0001453  91.7002 268.4157 15.08849258 70961,6917.852,95.437,540.722,538.712,0.0
53162.0,STARLINK-4114,PAYLOAD,2023-10-24 10:22:12,15.0884652,0.00014,53.2181,97.4016,89.6035,270.5118,-2.1033e-05,-6.23e-06,0.0,0 STARLINK-4114,1 53162U 22083AG  23297.43208580 -.00000623  00000-0 -21033-4 0  9991,2 53162  53.2181  97.4016 0001400  89.6035 270.5118 15.08846520 70439,6917.86,95.437,540.694,538.757,0.0
53162.0,STARLINK-4114,PAYLOAD,2023-10-25 14:59:08,15.08841106,0.000149,53.2162,92.0489,86.3619,273.7544,2.0106e-05,3.2e-07,0.0,0 STARLINK-4114,1 53162U 22083AG  23298.62440796  .00000032  00000-0  20106-4 0  9992,2 53162  53.2162  92.0489 0001490  86.3619 273.7544 15.08841106 71247,6917.877,95.437,540.773,538.711,0.0
53162.0,STARLINK-4114,PAYLOAD,2023-10-26 10:03:46,15.08841693,0.000126,53.2179,88.4806,90.3305,269.7831,0.00011076,1.475e-05,0.0,0 STARLINK-4114,1 53162U 22083AG  23299.41928734  .00001475  00000-0  11076-3 0  9990,2 53162  53.2179  88.4806 0001260  90.3305 269.7831 15.08841693 70737,6917.875,95.437,540.612,538.869,0.0
53162.0,STARLINK-4114,PAYLOAD,2023-10-26 16:25:18,15.0884663,0.0001332,53.2173,87.2907,93.412,266.7025,0.00014798,2.068e-05,0.0,0 STARLINK-4114,1 53162U 22083AG  23299.68424279  .00002068  00000-0  14798-3 0  9997,2 53162  53.2173  87.2907 0001332  93.4120 266.7025 15.08846630 71402,6917.86,95.437,540.647,538.804,0.0
53162.0,STARLINK-4114,PAYLOAD,2023-10-27 03:33:00,15.08849474,0.000132,53.2173,85.2093,92.4895,267.6249,0.00016427,2.328e-05,0.0,0 STARLINK-4114,1 53162U 22083AG  23300.14792011  .00002328  00000-0  16427-3 0  9993,2 53162  53.2173  85.2093 0001320  92.4895 267.6249 15.08849474 70845,6917.851,95.437,540.63,538.803,0.0
53162.0,STARLINK-4114,PAYLOAD,2023-10-27 19:26:51,15.0885012,0.0001393,53.2163,82.235,91.4358,268.6793,0.00017723,2.535e-05,0.0,0 STARLINK-4114,1 53162U 22083AG  23300.81031956  .00002535  00000-0  17723-3 0  9991,2 53162  53.2163  82.2350 0001393  91.4358 268.6793 15.08850120 71576,6917.849,95.437,540.678,538.751,0.0
53162.0,STARLINK-4114,PAYLOAD,2023-10-28 09:45:20,15.0883633,0.0001941,53.216,79.5583,92.655,267.4664,-4.8513e-05,-1.06e-05,0.0,0 STARLINK-4114,1 53162U 22083AG  23301.40648767 -.00001060  00000-0 -48513-4 0  9997,2 53162  53.2160  79.5583 0001941  92.6550 267.4664 15.08836330 71667,6917.892,95.438,541.099,538.414,0.0
